[{"OBJECT_NAME":"STARLINK-31067","OBJECT_ID":"2023-200V","EPOCH":"2026-03-09T22:00:01.999584","MEAN_MOTION":15.26754963,"ECCENTRICITY":0.00013862,"INCLINATION":42.9995,"RA_OF_ASC_NODE":167.4141,"ARG_OF_PERICENTER":275.4635,"MEAN_ANOMALY":216.7686,"EPHEMERIS_TYPE":0,"CLASSIFICATION_TYPE":"U","NORAD_CAT_ID":58608,"ELEMENT_SET_NO":999,"REV_AT_EPOCH":562,"BSTAR":-0.0003845601,"MEAN_MOTION_DOT":-0.00010565,"MEAN_MOTION_DDOT":0},{"OBJECT_NAME":"BANDWAGON-4 OBJECT Q","OBJECT_ID":"2025-248Q","EPOCH":"2026-03-08T23:44:19.819392","MEAN_MOTION":15.23978167,"ECCENTRICITY":0.00112804,"INCLINATION":45.4076,"RA_OF_ASC_NODE":295.4821,"ARG_OF_PERICENTER":209.4727,"MEAN_ANOMALY":150.5526,"EPHEMERIS_TYPE":0,"CLASSIFICATION_TYPE":"U","NORAD_CAT_ID":66307,"ELEMENT_SET_NO":999,"REV_AT_EPOCH":1930,"BSTAR":0.0009224217,"MEAN_MOTION_DOT":0.00022547,"MEAN_MOTION_DDOT":0}]
